{"type": "FeatureCollection", "features": [ {"type": "Feature", "properties": {"norad_id": 35038, "name": "COSMOS 2251 DEB", "group": "cosmos-2251-debris", "lat": -14.546640699280328, "lon": -128.0731566891929, "alt_km": 890.3245991659633, "timestamp": "2025-12-09T21:34:11.805422+00:00", "meta": {"OBJECT_NAME": "COSMOS 2251 DEB", "OBJECT_ID": "1993-036AHB", "EPOCH": "2025-12-09T12:31:32.179008", "MEAN_MOTION": 14.25113991, "ECCENTRICITY": 0.01137428, "INCLINATION": 74.1065, "RA_OF_ASC_NODE": 48.3636, "ARG_OF_PERICENTER": 33.1674, "MEAN_ANOMALY": 28.8553, "EPHEMERIS_TYPE": 0, "CLASSIFICATION_TYPE": "U", "NORAD_CAT_ID": 35038, "ELEMENT_SET_NO": 999, "REV_AT_EPOCH": 85523, "BSTAR": 0.0018952491, "MEAN_MOTION_DOT": 4.735e-05, "MEAN_MOTION_DDOT": 0}, "tle": {"line1": "1 35038U 93036AHB 25343.52190022  .00004735  00000+0  18952-2 0  9993", "line2": "2 35038  74.1065  48.3636 0113742  33.1674  28.8553 14.25113991855236"}}, "geometry": {"type": "Point", "coordinates": [-128.0731566891929, -14.546640699280328]}}, {"type": "Feature", "properties": {"norad_id": 35043, "name": "COSMOS 2251 DEB", "group": "cosmos-2251-debris", "lat": -43.042356542533724, "lon": -113.23011080891516, "alt_km": 590.5576695905947, "timestamp": "2025-12-09T21:34:11.805432+00:00", "meta": {"OBJECT_NAME": "COSMOS 2251 DEB", "OBJECT_ID": "1993-036AHG", "EPOCH": "2025-12-09T04:17:09.874464", "MEAN_MOTION": 14.76645506, "ECCENTRICITY": 0.0097128, "INCLINATION": 73.9514, "RA_OF_ASC_NODE": 52.5933, "ARG_OF_PERICENTER": 262.5152, "MEAN_ANOMALY": 96.4979, "EPHEMERIS_TYPE": 0, "CLASSIFICATION_TYPE": "U", "NORAD_CAT_ID": 35043, "ELEMENT_SET_NO": 999, "REV_AT_EPOCH": 67366, "BSTAR": 0.0046650855, "MEAN_MOTION_DOT": 0.00035389, "MEAN_MOTION_DDOT": 0}, "tle": {"line1": "1 35043U 93036AHG 25343.17858651  .00035389  00000+0  46651-2 0  9995", "line2": "2 35043  73.9514  52.5933 0097128 262.5152  96.4979 14.76645506673669"}}, "geometry": {"type": "Point", "coordinates": [-113.23011080891516, -43.042356542533724]}}, {"type": "Feature", "properties": {"norad_id": 35045, "name": "COSMOS 2251 DEB", "group": "cosmos-2251-debris", "lat": 61.45242718809539, "lon": -154.7674037757753, "alt_km": 1018.6065676042108, "timestamp": "2025-12-09T21:34:11.805442+00:00", "meta": {"OBJECT_NAME": "COSMOS 2251 DEB", "OBJECT_ID": "1993-036AHJ", "EPOCH": "2025-12-06T22:43:41.331360", "MEAN_MOTION": 14.0036659, "ECCENTRICITY": 0.0183364, "INCLINATION": 73.7196, "RA_OF_ASC_NODE": 62.9336, "ARG_OF_PERICENTER": 305.7539, "MEAN_ANOMALY": 52.6659, "EPHEMERIS_TYPE": 0, "CLASSIFICATION_TYPE": "U", "NORAD_CAT_ID": 35045, "ELEMENT_SET_NO": 999, "REV_AT_EPOCH": 84562, "BSTAR": 0.0010227315, "MEAN_MOTION_DOT": 1.724e-05, "MEAN_MOTION_DDOT": 0}, "tle": {"line1": "1 35045U 93036AHJ 25340.94700615  .00001724  00000+0  10227-2 0  9991", "line2": "2 35045  73.7196  62.9336 0183364 305.7539  52.6659 14.00366590845620"}}, "geometry": {"type": "Point", "coordinates": [-154.7674037757753, 61.45242718809539]}}, {"type": "Feature", "properties": {"norad_id": 35060, "name": "COSMOS 2251 DEB", "group": "cosmos-2251-debris", "lat": -39.07093459783266, "lon": -123.84013025436714, "alt_km": 747.0620670146791, "timestamp": "2025-12-09T21:34:11.805452+00:00", "meta": {"OBJECT_NAME": "COSMOS 2251 DEB", "OBJECT_ID": "1993-036AHP", "EPOCH": "2025-11-28T02:37:07.839264", "MEAN_MOTION": 14.41547968, "ECCENTRICITY": 0.00179641, "INCLINATION": 74.0363, "RA_OF_ASC_NODE": 271.4275, "ARG_OF_PERICENTER": 359.5881, "MEAN_ANOMALY": 0.5257, "EPHEMERIS_TYPE": 0, "CLASSIFICATION_TYPE": "U", "NORAD_CAT_ID": 35060, "ELEMENT_SET_NO": 999, "REV_AT_EPOCH": 87031, "BSTAR": 0.0004076845, "MEAN_MOTION_DOT": 1.301e-05, "MEAN_MOTION_DDOT": 0}, "tle": {"line1": "1 35060U 93036AHP 25332.10911851  .00001301  00000+0  40768-3 0  9998", "line2": "2 35060  74.0363 271.4275 0017964 359.5881   0.5257 14.41547968870310"}}, "geometry": {"type": "Point", "coordinates": [-123.84013025436714, -39.07093459783266]}}, {"type": "Feature", "properties": {"norad_id": 35061, "name": "COSMOS 2251 DEB", "group": "cosmos-2251-debris", "lat": -60.32632985891066, "lon": -78.9265839469141, "alt_km": 691.6024588377368, "timestamp": "2025-12-09T21:34:11.805476+00:00", "meta": {"OBJECT_NAME": "COSMOS 2251 DEB", "OBJECT_ID": "1993-036AHQ", "EPOCH": "2025-12-09T15:19:15.644064", "MEAN_MOTION": 14.6778297, "ECCENTRICITY": 0.00389666, "INCLINATION": 74.0462, "RA_OF_ASC_NODE": 311.7122, "ARG_OF_PERICENTER": 63.5109, "MEAN_ANOMALY": 297.0048, "EPHEMERIS_TYPE": 0, "CLASSIFICATION_TYPE": "U", "NORAD_CAT_ID": 35061, "ELEMENT_SET_NO": 999, "REV_AT_EPOCH": 88529, "BSTAR": 0.0012756095, "MEAN_MOTION_DOT": 7.336e-05, "MEAN_MOTION_DDOT": 0}, "tle": {"line1": "1 35061U 93036AHQ 25343.63837551  .00007336  00000+0  12756-2 0  9992", "line2": "2 35061  74.0462 311.7122 0038966  63.5109 297.0048 14.67782970885296"}}, "geometry": {"type": "Point", "coordinates": [-78.9265839469141, -60.32632985891066]}}, {"type": "Feature", "properties": {"norad_id": 35062, "name": "COSMOS 2251 DEB", "group": "cosmos-2251-debris", "lat": 74.05751653478282, "lon": -169.40493607510194, "alt_km": 717.0924401826469, "timestamp": "2025-12-09T21:34:11.805487+00:00", "meta": {"OBJECT_NAME": "COSMOS 2251 DEB", "OBJECT_ID": "1993-036AHR", "EPOCH": "2025-12-09T14:24:07.379424", "MEAN_MOTION": 14.22893072, "ECCENTRICITY": 0.01278597, "INCLINATION": 74.0789, "RA_OF_ASC_NODE": 98.8746, "ARG_OF_PERICENTER": 99.4973, "MEAN_ANOMALY": 262.0651, "EPHEMERIS_TYPE": 0, "CLASSIFICATION_TYPE": "U", "NORAD_CAT_ID": 35062, "ELEMENT_SET_NO": 999, "REV_AT_EPOCH": 85454, "BSTAR": 0.0026816645, "MEAN_MOTION_DOT": 6.536e-05, "MEAN_MOTION_DDOT": 0}, "tle": {"line1": "1 35062U 93036AHR 25343.60008541  .00006536  00000+0  26817-2 0  9993", "line2": "2 35062  74.0789  98.8746 0127859  99.4973 262.0651 14.22893072854544"}}, "geometry": {"type": "Point", "coordinates": [-169.40493607510194, 74.05751653478282]}}, {"type": "Feature", "properties": {"norad_id": 35065, "name": "COSMOS 2251 DEB", "group": "cosmos-2251-debris", "lat": -73.18707899416196, "lon": 91.14806453228496, "alt_km": 739.6568254213262, "timestamp": "2025-12-09T21:34:11.805498+00:00", "meta": {"OBJECT_NAME": "COSMOS 2251 DEB", "OBJECT_ID": "1993-036AHU", "EPOCH": "2025-12-08T21:05:49.871616", "MEAN_MOTION": 14.4570853, "ECCENTRICITY": 0.0019714, "INCLINATION": 74.0196, "RA_OF_ASC_NODE": 201.5431, "ARG_OF_PERICENTER": 327.1177, "MEAN_ANOMALY": 32.8753, "EPHEMERIS_TYPE": 0, "CLASSIFICATION_TYPE": "U", "NORAD_CAT_ID": 35065, "ELEMENT_SET_NO": 999, "REV_AT_EPOCH": 68295, "BSTAR": 0.00050947, "MEAN_MOTION_DOT": 1.782e-05, "MEAN_MOTION_DDOT": 0}, "tle": {"line1": "1 35065U 93036AHU 25342.87904944  .00001782  00000+0  50947-3 0  9996", "line2": "2 35065  74.0196 201.5431 0019714 327.1177  32.8753 14.45708530682959"}}, "geometry": {"type": "Point", "coordinates": [91.14806453228496, -73.18707899416196]}}, {"type": "Feature", "properties": {"norad_id": 35071, "name": "COSMOS 2251 DEB", "group": "cosmos-2251-debris", "lat": -68.27919231403561, "lon": 45.62901103795923, "alt_km": 610.6757031504621, "timestamp": "2025-12-09T21:34:11.805508+00:00", "meta": {"OBJECT_NAME": "COSMOS 2251 DEB", "OBJECT_ID": "1993-036AJA", "EPOCH": "2025-12-06T06:11:48.969024", "MEAN_MOTION": 15.03269957, "ECCENTRICITY": 0.00683754, "INCLINATION": 73.9314, "RA_OF_ASC_NODE": 186.7627, "ARG_OF_PERICENTER": 85.1943, "MEAN_ANOMALY": 275.7048, "EPHEMERIS_TYPE": 0, "CLASSIFICATION_TYPE": "U", "NORAD_CAT_ID": 35071, "ELEMENT_SET_NO": 999, "REV_AT_EPOCH": 67439, "BSTAR": 0.0011992827, "MEAN_MOTION_DOT": 0.00017109, "MEAN_MOTION_DDOT": 0}, "tle": {"line1": "1 35071U 93036AJA 25340.25820566  .00017109  00000+0  11993-2 0  9997", "line2": "2 35071  73.9314 186.7627 0068375  85.1943 275.7048 15.03269957674390"}}, "geometry": {"type": "Point", "coordinates": [45.62901103795923, -68.27919231403561]}}, {"type": "Feature", "properties": {"norad_id": 35073, "name": "COSMOS 2251 DEB", "group": "cosmos-2251-debris", "lat": 31.156155122349737, "lon": -13.63908101747955, "alt_km": 558.5058415866879, "timestamp": "2025-12-09T21:34:11.805518+00:00", "meta": {"OBJECT_NAME": "COSMOS 2251 DEB", "OBJECT_ID": "1993-036AJC", "EPOCH": "2025-12-06T06:59:58.933248", "MEAN_MOTION": 14.99991639, "ECCENTRICITY": 0.00102924, "INCLINATION": 74.0009, "RA_OF_ASC_NODE": 343.7168, "ARG_OF_PERICENTER": 84.8418, "MEAN_ANOMALY": 275.3943, "EPHEMERIS_TYPE": 0, "CLASSIFICATION_TYPE": "U", "NORAD_CAT_ID": 35073, "ELEMENT_SET_NO": 999, "REV_AT_EPOCH": 67382, "BSTAR": 0.0044204403, "MEAN_MOTION_DOT": 0.00055435, "MEAN_MOTION_DDOT": 0}, "tle": {"line1": "1 35073U 93036AJC 25340.29165432  .00055435  00000+0  44204-2 0  9992", "line2": "2 35073  74.0009 343.7168 0010292  84.8418 275.3943 14.99991639673828"}}, "geometry": {"type": "Point", "coordinates": [-13.63908101747955, 31.156155122349737]}}, {"type": "Feature", "properties": {"norad_id": 35284, "name": "COSMOS 2251 DEB", "group": "cosmos-2251-debris", "lat": 33.36746875224712, "lon": -79.48930377928743, "alt_km": 753.7201999323079, "timestamp": "2025-12-09T21:34:11.805528+00:00", "meta": {"OBJECT_NAME": "COSMOS 2251 DEB", "OBJECT_ID": "1993-036AJN", "EPOCH": "2025-12-09T11:57:18.077760", "MEAN_MOTION": 14.38312674, "ECCENTRICITY": 0.00166524, "INCLINATION": 74.0492, "RA_OF_ASC_NODE": 270.3915, "ARG_OF_PERICENTER": 347.5267, "MEAN_ANOMALY": 133.7603, "EPHEMERIS_TYPE": 0, "CLASSIFICATION_TYPE": "U", "NORAD_CAT_ID": 35284, "ELEMENT_SET_NO": 999, "REV_AT_EPOCH": 65479, "BSTAR": 0.00032789073, "MEAN_MOTION_DOT": 9.73e-06, "MEAN_MOTION_DDOT": 0}, "tle": {"line1": "1 35284U 93036AJN 25343.49812590  .00000973  00000+0  32789-3 0  9998", "line2": "2 35284  74.0492 270.3915 0016652 347.5267 133.7603 14.38312674654794"}}, "geometry": {"type": "Point", "coordinates": [-79.48930377928743, 33.36746875224712]}}]}